COMMENT,ORIGINATOR,NORAD_CAT_ID,OBJECT_NAME,OBJECT_TYPE,CLASSIFICATION_TYPE,INTLDES,EPOCH,EPOCH_MICROSECONDS,MEAN_MOTION,ECCENTRICITY,INCLINATION,RA_OF_ASC_NODE,ARG_OF_PERICENTER,MEAN_ANOMALY,EPHEMERIS_TYPE,ELEMENT_SET_NO,REV_AT_EPOCH,BSTAR,MEAN_MOTION_DOT,MEAN_MOTION_DDOT,FILE,TLE_LINE0,TLE_LINE1,TLE_LINE2,OBJECT_ID,OBJECT_NUMBER,SEMIMAJOR_AXIS,PERIOD,APOGEE,PERIGEE,DECAYED,date
GENERATED VIA SPACETRACK.ORG API,18 SPCS,52182,SPACEBEE-128,PAYLOAD,U,22033AB,2023/3/30 18:25,646272,15.38626715,0.0006238,97.354,173.0179,97.1956,262.9999,0,999,5539,0.0022253,0.00085701,0,3875726,0 SPACEBEE-128,1 52182U 22033AB  23089.76750748  .00085701  00000-0  22253-2 0  9991,2 52182  97.3540 173.0179 0006238  97.1956 262.9999 15.38626715 55394,2022-033AB,52182,6828.306,93.59,454.431,445.912,1,
GENERATED VIA SPACETRACK.ORG API,18 SPCS,52182,SPACEBEE-128,PAYLOAD,U,22033AB,2023/4/1 4:45,92768,15.38859305,0.0006078,97.3538,174.4526,93.0467,267.1474,0,999,5559,0.0020285,0.00078633,0,3876916,0 SPACEBEE-128,1 52182U 22033AB  23091.19817237  .00078633  00000-0  20285-2 0  9997,2 52182  97.3538 174.4526 0006078  93.0467 267.1474 15.38859305 55596,2022-033AB,52182,6827.618,93.576,453.633,445.333,1,
GENERATED VIA SPACETRACK.ORG API,18 SPCS,52182,SPACEBEE-128,PAYLOAD,U,22033AB,2023/4/1 4:45,92768,15.38859305,0.0006078,97.3538,174.4526,93.0467,267.1474,0,999,5561,0.0020285,0.00078633,0,3877270,0 SPACEBEE-128,1 52182U 22033AB  23091.19817237  .00078633  00000-0  20285-2 0  9997,2 52182  97.3538 174.4526 0006078  93.0467 267.1474 15.38859305 55619,2022-033AB,52182,6827.618,93.576,453.633,445.333,1,
GENERATED VIA SPACETRACK.ORG API,18 SPCS,52182,SPACEBEE-128,PAYLOAD,U,22033AB,2023/4/1 18:48,805280,15.38936459,0.0005994,97.3537,175.0401,90.0476,270.1456,0,999,5568,0.0019304,0.00074978,0,3877489,0 SPACEBEE-128,1 52182U 22033AB  23091.78338895  .00074978  00000-0  19304-2 0  9998,2 52182  97.3537 175.0401 0005994  90.0476 270.1456 15.38936459 55687,2022-033AB,52182,6827.39,93.571,453.347,445.163,1,
GENERATED VIA SPACETRACK.ORG API,18 SPCS,52182,SPACEBEE-128,PAYLOAD,U,22033AB,2023/4/1 18:48,805280,15.38936459,0.0005994,97.3537,175.0401,90.0476,270.1456,0,999,5570,0.0019304,0.00074978,0,3877516,0 SPACEBEE-128,1 52182U 22033AB  23091.78338895  .00074978  00000-0  19304-2 0  9998,2 52182  97.3537 175.0401 0005994  90.0476 270.1456 15.38936459 55700,2022-033AB,52182,6827.39,93.571,453.347,445.163,1,
GENERATED VIA SPACETRACK.ORG API,18 SPCS,52182,SPACEBEE-128,PAYLOAD,U,22033AB,2023/4/2 4:09,759936,15.3899347,0.0005984,97.354,175.4315,89.1615,271.0316,0,999,5576,0.0019432,0.00075622,0,3878126,0 SPACEBEE-128,1 52182U 22033AB  23092.17351574  .00075622  00000-0  19432-2 0  9990,2 52182  97.3540 175.4315 0005984  89.1615 271.0316 15.38993470 55762,2022-033AB,52182,6827.221,93.568,453.172,445.001,1,
GENERATED VIA SPACETRACK.ORG API,18 SPCS,52182,SPACEBEE-128,PAYLOAD,U,22033AB,2023/4/2 16:38,489248,15.39063191,0.0006012,97.3538,175.9539,86.8884,273.305,0,999,5584,0.0018826,0.00073407,0,3878419,0 SPACEBEE-128,1 52182U 22033AB  23092.69366307  .00073407  00000-0  18826-2 0  9992,2 52182  97.3538 175.9539 0006012  86.8884 273.3050 15.39063191 55845,2022-033AB,52182,6827.015,93.563,452.985,444.776,1,
GENERATED VIA SPACETRACK.ORG API,18 SPCS,52182,SPACEBEE-128,PAYLOAD,U,22033AB,2023/4/3 5:07,65472,15.39137985,0.0005909,97.354,176.4753,86.2039,273.9882,0,999,5590,0.0018435,0.00072042,0,3878714,0 SPACEBEE-128,1 52182U 22033AB  23093.21378548  .00072042  00000-0  18435-2 0  9991,2 52182  97.3540 176.4753 0005909  86.2039 273.9882 15.39137985 55901,2022-033AB,52182,6826.794,93.559,452.693,444.625,1,
GENERATED VIA SPACETRACK.ORG API,18 SPCS,52182,SPACEBEE-128,PAYLOAD,U,22033AB,2023/4/3 5:07,65472,15.39137985,0.0005909,97.354,176.4753,86.2039,273.9882,0,999,5592,0.0018435,0.00072042,0,3879059,0 SPACEBEE-128,1 52182U 22033AB  23093.21378548  .00072042  00000-0  18435-2 0  9991,2 52182  97.3540 176.4753 0005909  86.2039 273.9882 15.39137985 55923,2022-033AB,52182,6826.794,93.559,452.693,444.625,1,
GENERATED VIA SPACETRACK.ORG API,18 SPCS,52182,SPACEBEE-128,PAYLOAD,U,22033AB,2023/4/3 16:03,761120,15.39188796,0.0005838,97.3538,176.9325,83.6788,276.5123,0,999,5597,0.0015926,0.0006225,0,3879299,0 SPACEBEE-128,1 52182U 22033AB  23093.66887455  .00062250  00000-0  15926-2 0  9994,2 52182  97.3538 176.9325 0005838  83.6788 276.5123 15.39188796 55971,2022-033AB,52182,6826.644,93.556,452.494,444.523,1,
GENERATED VIA SPACETRACK.ORG API,18 SPCS,52182,SPACEBEE-128,PAYLOAD,U,22033AB,2023/4/3 16:03,761120,15.39188796,0.0005838,97.3538,176.9325,83.6788,276.5123,0,999,5599,0.0015926,0.0006225,0,3879321,0 SPACEBEE-128,1 52182U 22033AB  23093.66887455  .00062250  00000-0  15926-2 0  9994,2 52182  97.3538 176.9325 0005838  83.6788 276.5123 15.39188796 55993,2022-033AB,52182,6826.644,93.556,452.494,444.523,1,
GENERATED VIA SPACETRACK.ORG API,18 SPCS,52182,SPACEBEE-128,PAYLOAD,U,22033AB,2023/4/5 5:29,711264,15.39410978,0.0005613,97.3538,178.4983,79.1961,280.9917,0,999,5621,0.0016618,0.00065456,0,3880558,0 SPACEBEE-128,1 52182U 22033AB  23095.22903601  .00065456  00000-0  16618-2 0  9990,2 52182  97.3538 178.4983 0005613  79.1961 280.9917 15.39410978 56210,2022-033AB,52182,6825.987,93.542,451.683,444.021,1,
GENERATED VIA SPACETRACK.ORG API,18 SPCS,52182,SPACEBEE-128,PAYLOAD,U,22033AB,2023/4/5 5:29,711264,15.39410978,0.0005613,97.3538,178.4983,79.1961,280.9917,0,999,5623,0.0016618,0.00065456,0,3880853,0 SPACEBEE-128,1 52182U 22033AB  23095.22903601  .00065456  00000-0  16618-2 0  9990,2 52182  97.3538 178.4983 0005613  79.1961 280.9917 15.39410978 56232,2022-033AB,52182,6825.987,93.542,451.683,444.021,1,
GENERATED VIA SPACETRACK.ORG API,18 SPCS,52182,SPACEBEE-128,PAYLOAD,U,22033AB,2023/4/5 17:58,409376,15.39471258,0.0005586,97.3535,179.0208,76.5906,283.5962,0,999,5631,0.0016013,0.00063175,0,3881153,0 SPACEBEE-128,1 52182U 22033AB  23095.74904409  .00063175  00000-0  16013-2 0  9999,2 52182  97.3535 179.0208 0005586  76.5906 283.5962 15.39471258 56311,2022-033AB,52182,6825.809,93.539,451.487,443.861,1,
GENERATED VIA SPACETRACK.ORG API,18 SPCS,52182,SPACEBEE-128,PAYLOAD,U,22033AB,2023/4/6 11:08,150016,15.39561192,0.0005493,97.3534,179.7388,74.0136,286.1715,0,999,5640,0.0015689,0.00062068,0,3881666,0 SPACEBEE-128,1 52182U 22033AB  23096.46401794  .00062068  00000-0  15689-2 0  9996,2 52182  97.3534 179.7388 0005493  74.0136 286.1715 15.39561192 56403,2022-033AB,52182,6825.543,93.533,451.157,443.659,1,
GENERATED VIA SPACETRACK.ORG API,18 SPCS,52182,SPACEBEE-128,PAYLOAD,U,22033AB,2023/4/6 11:08,150016,15.39561192,0.0005493,97.3534,179.7388,74.0136,286.1715,0,999,5642,0.0015689,0.00062068,0,3881771,0 SPACEBEE-128,1 52182U 22033AB  23096.46401794  .00062068  00000-0  15689-2 0  9996,2 52182  97.3534 179.7388 0005493  74.0136 286.1715 15.39561192 56425,2022-033AB,52182,6825.543,93.533,451.157,443.659,1,
GENERATED VIA SPACETRACK.ORG API,18 SPCS,52182,SPACEBEE-128,PAYLOAD,U,22033AB,2023/4/6 22:03,863360,15.39618025,0.0005407,97.3533,180.1955,71.6531,288.5303,0,999,5649,0.0014524,0.00057525,0,3882049,0 SPACEBEE-128,1 52182U 22033AB  23096.91897990  .00057525  00000-0  14524-2 0  9992,2 52182  97.3533 180.1955 0005407  71.6531 288.5303 15.39618025 56491,2022-033AB,52182,6825.375,93.53,450.93,443.55,1,
GENERATED VIA SPACETRACK.ORG API,18 SPCS,52182,SPACEBEE-128,PAYLOAD,U,22033AB,2023/4/7 4:17,358624,15.39653783,0.0005409,97.3532,180.4564,71.6862,288.4972,0,999,5653,0.0016095,0.00063883,0,3882626,0 SPACEBEE-128,1 52182U 22033AB  23097.17895091  .00063883  00000-0  16095-2 0  9990,2 52182  97.3532 180.4564 0005409  71.6862 288.4972 15.39653783 56534,2022-033AB,52182,6825.269,93.528,450.826,443.443,1,
GENERATED VIA SPACETRACK.ORG API,18 SPCS,52182,SPACEBEE-128,PAYLOAD,U,22033AB,2023/4/7 16:46,877760,15.39719355,0.0005424,97.353,180.979,69.0937,291.0889,0,999,5659,0.00169,0.00067256,0,3882836,0 SPACEBEE-128,1 52182U 22033AB  23097.69887590  .00067256  00000-0  16900-2 0  9995,2 52182  97.3530 180.9790 0005424  69.0937 291.0889 15.39719355 56590,2022-033AB,52182,6825.076,93.524,450.642,443.239,1,
GENERATED VIA SPACETRACK.ORG API,18 SPCS,52182,SPACEBEE-128,PAYLOAD,U,22033AB,2023/4/8 5:15,466720,15.39782464,0.0005384,97.3527,181.5009,67.7221,292.4595,0,999,5669,0.0014029,0.00055849,0,3883527,0 SPACEBEE-128,1 52182U 22033AB  23098.21877855  .00055849  00000-0  14029-2 0  9992,2 52182  97.3527 181.5009 0005384  67.7221 292.4595 15.39782464 56693,2022-033AB,52182,6824.889,93.52,450.429,443.08,1,
GENERATED VIA SPACETRACK.ORG API,18 SPCS,52182,SPACEBEE-128,PAYLOAD,U,22033AB,2023/4/8 19:17,836416,15.39851563,0.0005275,97.3521,182.0886,64.8602,295.319,0,999,5676,0.0014044,0.00056036,0,3883768,0 SPACEBEE-128,1 52182U 22033AB  23098.80364394  .00056036  00000-0  14044-2 0  9992,2 52182  97.3521 182.0886 0005275  64.8602 295.3190 15.39851563 56764,2022-033AB,52182,6824.685,93.516,450.15,442.95,1,
GENERATED VIA SPACETRACK.ORG API,18 SPCS,52182,SPACEBEE-128,PAYLOAD,U,22033AB,2023/4/9 10:52,344896,15.39925538,0.0005239,97.3522,182.7416,62.6454,297.5325,0,999,5688,0.0015699,0.00062857,0,3884332,0 SPACEBEE-128,1 52182U 22033AB  23099.45346464  .00062857  00000-0  15699-2 0  9997,2 52182  97.3522 182.7416 0005239  62.6454 297.5325 15.39925538 56883,2022-033AB,52182,6824.466,93.511,449.907,442.756,1,
GENERATED VIA SPACETRACK.ORG API,18 SPCS,52182,SPACEBEE-128,PAYLOAD,U,22033AB,2023/4/9 17:07,424256,15.39954229,0.0005246,97.352,183.0027,61.5247,298.6527,0,999,5692,0.001421,0.00056897,0,3884641,0 SPACEBEE-128,1 52182U 22033AB  23099.71338454  .00056897  00000-0  14210-2 0  9991,2 52182  97.3520 183.0027 0005246  61.5247 298.6527 15.39954229 56929,2022-033AB,52182,6824.382,93.509,449.827,442.666,1,
